ORBCOMM FM103           
1 40091U 14040F   24235.81745089  .00002505  00000+0  58949-3 0  9990
2 40091  47.0066 345.7402 0002206 321.5575  38.5152 14.56935558520576
ORBCOMM FM114           
1 41179U 15081A   24235.77845449  .00002048  00000+0  48847-3 0  9998
2 41179  47.0007 255.1355 0001554  13.9789 346.1139 14.56961330460937
ORBCOMM FM105           
1 41181U 15081C   24235.92299192  .00001186  00000+0  38505-3 0  9998
2 41181  47.0014 140.2032 0001407  48.4802 311.6199 14.44568025457615
ORBCOMM FM110           
1 41182U 15081D   24235.75529175  .00001909  00000+0  45727-3 0  9994
2 41182  46.9997 254.6393 0002633 256.9873 103.0718 14.57022642460809
ORBCOMM FM113           
1 41185U 15081G   24235.91373167  .00002711  00000+0  63536-3 0  9993
2 41185  46.9998 163.2056 0000810 108.8483 251.2490 14.56907079462137
